NORAD_CAT_ID,OBJECT_NAME,OBJECT_TYPE,EPOCH,MEAN_MOTION,ECCENTRICITY,INCLINATION,RA_OF_ASC_NODE,ARG_OF_PERICENTER,MEAN_ANOMALY,BSTAR,MEAN_MOTION_DOT,MEAN_MOTION_DDOT,TLE_LINE0,TLE_LINE1,TLE_LINE2,SEMIMAJOR_AXIS,PERIOD,APOGEE,PERIGEE,DECAYED
52608.0,STARLINK-3979,PAYLOAD,2024-04-18 11:44:50,15.08831034,0.0001428,53.2168,137.5488,97.7864,262.329,7.999e-06,-1.61e-06,0.0,0 STARLINK-3979,1 52608U 22052L   24109.48947122 -.00000161  00000-0  79990-5 0  9993,2 52608  53.2168 137.5488 0001428  97.7864 262.3290 15.08831034107038,6917.908,95.438,540.761,538.785,0.0
52608.0,STARLINK-3979,PAYLOAD,2024-04-19 05:14:03,15.08850601,0.0001124,53.2168,134.2798,84.9567,275.1553,5.297e-05,5.56e-06,0.0,0 STARLINK-3979,1 52608U 22052L   24110.21810152  .00000556  00000-0  52970-4 0  9993,2 52608  53.2168 134.2798 0001124  84.9567 275.1553 15.08850601107144,6917.848,95.437,540.491,538.935,0.0
52608.0,STARLINK-3979,PAYLOAD,2024-04-19 11:35:35,15.08857428,0.0001346,53.2171,133.0881,97.4086,262.7059,0.00017318,2.471e-05,0.0,0 STARLINK-3979,1 52608U 22052L   24110.48305440  .00002471  00000-0  17318-3 0  9995,2 52608  53.2171 133.0881 0001346  97.4086 262.7059 15.08857428107180,6917.827,95.436,540.623,538.761,0.0
52608.0,STARLINK-3979,PAYLOAD,2024-04-20 01:54:04,15.08853625,0.0001317,53.2162,130.4117,89.7188,270.3955,0.00029145,4.355e-05,0.0,0 STARLINK-3979,1 52608U 22052L   24111.07921895  .00004355  00000-0  29145-3 0  9993,2 52608  53.2162 130.4117 0001317  89.7188 270.3955 15.08853625107273,6917.839,95.437,540.615,538.793,0.0
52608.0,STARLINK-3979,PAYLOAD,2024-04-20 08:15:36,15.08862339,0.0001402,53.2166,129.2223,89.2118,270.9035,0.00035522,5.373e-05,0.0,0 STARLINK-3979,1 52608U 22052L   24111.34417386  .00005373  00000-0  35522-3 0  9995,2 52608  53.2166 129.2223 0001402  89.2118 270.9035 15.08862339106944,6917.812,95.436,540.647,538.707,0.0
52608.0,STARLINK-3979,PAYLOAD,2024-04-21 01:44:52,15.08828405,0.0001469,53.217,125.9506,97.8737,262.2422,-0.00034065,-5.704e-05,0.0,0 STARLINK-3979,1 52608U 22052L   24112.07282697 -.00005704  00000-0 -34065-3 0  9992,2 52608  53.2170 125.9506 0001469  97.8737 262.2422 15.08828405107425,6917.916,95.438,540.797,538.765,0.0
52608.0,STARLINK-3979,PAYLOAD,2024-04-21 06:31:02,15.0882255,0.0001572,53.2168,125.0586,97.8149,262.3022,-0.00039381,-6.547e-05,0.0,0 STARLINK-3979,1 52608U 22052L   24112.27155108 -.00006547  00000-0 -39381-3 0  9992,2 52608  53.2168 125.0586 0001572  97.8149 262.3022 15.08822550107087,6917.934,95.439,540.886,538.711,0.0
52608.0,STARLINK-3979,PAYLOAD,2024-04-22 07:57:12,15.08835609,0.000154,53.217,120.3022,89.0223,271.0946,0.0004073,6.199e-05,0.0,0 STARLINK-3979,1 52608U 22052L   24113.33139965  .00006199  00000-0  40730-3 0  9994,2 52608  53.2170 120.3022 0001540  89.0223 271.0946 15.08835609107614,6917.894,95.438,540.824,538.693,0.0
52608.0,STARLINK-3979,PAYLOAD,2024-04-23 09:23:22,15.08868359,0.0001492,53.2158,115.5447,94.9908,265.1255,0.00080054,0.00012485,0.0,0 STARLINK-3979,1 52608U 22052L   24114.39122941  .00012485  00000-0  80054-3 0  9995,2 52608  53.2158 115.5447 0001492  94.9908 265.1255 15.08868359107770,6917.794,95.436,540.691,538.627,0.0
52608.0,STARLINK-3979,PAYLOAD,2024-04-23 23:41:50,15.08847486,0.0001426,53.2159,112.8689,95.8739,264.2415,9.7207e-05,1.26e-05,0.0,0 STARLINK-3979,1 52608U 22052L   24114.98739101  .00001260  00000-0  97207-4 0  9990,2 52608  53.2159 112.8689 0001426  95.8739 264.2415 15.08847486107864,6917.858,95.437,540.709,538.736,0.0
52608.0,STARLINK-3979,PAYLOAD,2024-04-24 06:03:22,15.0885144,0.0001559,53.2159,111.6791,102.5604,257.5563,0.00037862,5.745e-05,0.0,0 STARLINK-3979,1 52608U 22052L   24115.25234948  .00005745  00000-0  37862-3 0  9992,2 52608  53.2159 111.6791 0001559 102.5604 257.5563 15.08851440107537,6917.845,95.437,540.789,538.632,0.0
52608.0,STARLINK-3979,PAYLOAD,2024-04-25 04:18:47,15.08842794,0.0001615,53.2156,107.5192,83.1672,276.9504,0.00035871,5.426e-05,0.0,0 STARLINK-3979,1 52608U 22052L   24116.17971351  .00005426  00000-0  35871-3 0  9994,2 52608  53.2156 107.5192 0001615  83.1672 276.9504 15.08842794108044,6917.872,95.437,540.854,538.62,0.0
52608.0,STARLINK-3979,PAYLOAD,2024-04-25 05:54:10,15.08842759,0.0001566,53.216,107.221,92.543,267.5741,0.00025823,3.824e-05,0.0,0 STARLINK-3979,1 52608U 22052L   24116.24595262  .00003824  00000-0  25823-3 0  9991,2 52608  53.2160 107.2210 0001566  92.5430 267.5741 15.08842759107687,6917.872,95.437,540.82,538.654,0.0
52608.0,STARLINK-3979,PAYLOAD,2024-04-26 08:55:42,15.08853027,0.0001517,53.216,102.1623,108.0853,252.0304,0.00029468,4.407e-05,0.0,0 STARLINK-3979,1 52608U 22052L   24117.37202511  .00004407  00000-0  29468-3 0  9995,2 52608  53.2160 102.1623 0001517 108.0853 252.0304 15.08853027108222,6917.841,95.437,540.755,538.656,0.0
52608.0,STARLINK-3979,PAYLOAD,2024-04-27 05:35:43,15.08846652,0.0001337,53.2168,98.299,98.7543,261.3601,0.00014631,2.042e-05,0.0,0 STARLINK-3979,1 52608U 22052L   24118.23314655  .00002042  00000-0  14631-3 0  9993,2 52608  53.2168  98.2990 0001337  98.7543 261.3601 15.08846652108356,6917.86,95.437,540.65,538.8,0.0
52608.0,STARLINK-3979,PAYLOAD,2024-04-27 08:46:29,15.08850429,0.0001313,53.2166,97.7014,96.2419,263.8722,0.00021539,3.143e-05,0.0,0 STARLINK-3979,1 52608U 22052L   24118.36562443  .00003143  00000-0  21539-3 0  9995,2 52608  53.2166  97.7014 0001313  96.2419 263.8722 15.08850429108004,6917.849,95.437,540.622,538.805,0.0
52608.0,STARLINK-3979,PAYLOAD,2024-04-27 21:29:35,15.08830286,0.000196,53.2169,95.321,95.8752,264.2463,-0.00017289,-3.038e-05,0.0,0 STARLINK-3979,1 52608U 22052L   24118.89555458 -.00003038  00000-0 -17289-3 0  9993,2 52608  53.2169  95.3210 0001960  95.8752 264.2463 15.08830286108457,6917.91,95.438,541.131,538.419,0.0
52608.0,STARLINK-3979,PAYLOAD,2024-04-28 05:26:31,15.08831001,0.0001286,53.2168,93.838,103.3785,256.735,-0.00013035,-2.361e-05,0.0,0 STARLINK-3979,1 52608U 22052L   24119.22675527 -.00002361  00000-0 -13035-3 0  9994,2 52608  53.2168  93.8380 0001286 103.3785 256.7350 15.08831001108131,6917.908,95.438,540.663,538.883,0.0
52608.0,STARLINK-3979,PAYLOAD,2024-04-28 22:55:46,15.08836165,0.000125,53.2174,90.5672,107.4937,252.6192,8.3256e-05,1.037e-05,0.0,0 STARLINK-3979,1 52608U 22052L   24119.95539755  .00001037  00000-0  83256-4 0  9996,2 52608  53.2174  90.5672 0001250 107.4937 252.6192 15.08836165108248,6917.892,95.438,540.622,538.892,0.0
52608.0,STARLINK-3979,PAYLOAD,2024-04-29 05:17:18,15.08841362,0.0001271,53.2175,89.3782,110.6379,249.475,0.00021473,3.131e-05,0.0,0 STARLINK-3979,1 52608U 22052L   24120.22035671  .00003131  00000-0  21473-3 0  9995,2 52608  53.2175  89.3782 0001271 110.6379 249.4750 15.08841362108650,6917.876,95.437,540.62,538.862,0.0
52608.0,STARLINK-3979,PAYLOAD,2024-04-29 21:11:10,15.08845326,0.0001271,53.2176,86.4049,108.8589,251.2541,0.0003225,4.849e-05,0.0,0 STARLINK-3979,1 52608U 22052L   24120.88275718  .00004849  00000-0  32250-3 0  9997,2 52608  53.2176  86.4049 0001271 108.8589 251.2541 15.08845326108380,6917.864,95.437,540.608,538.85,0.0
52608.0,STARLINK-3979,PAYLOAD,2024-04-30 05:08:05,15.08848463,0.0001239,53.2172,84.9178,107.9584,252.1544,0.00026428,3.922e-05,0.0,0 STARLINK-3979,1 52608U 22052L   24121.21395523  .00003922  00000-0  26428-3 0  9993,2 52608  53.2172  84.9178 0001239 107.9584 252.1544 15.08848463108435,6917.855,95.437,540.577,538.862,0.0
52608.0,STARLINK-3979,PAYLOAD,2024-04-30 14:40:24,15.0884281,0.0001127,53.2161,83.1328,97.3792,262.7328,7.6302e-05,9.27e-06,0.0,0 STARLINK-3979,1 52608U 22052L   24121.61139604  .00000927  00000-0  76302-4 0  9992,2 52608  53.2161  83.1328 0001127  97.3792 262.7328 15.08842810108864,6917.872,95.437,540.516,538.957,0.0
52608.0,STARLINK-3979,PAYLOAD,2024-05-01 06:34:16,15.08845945,0.0001185,53.2168,80.1582,97.6655,262.4472,0.00010462,1.378e-05,0.0,0 STARLINK-3979,1 52608U 22052L   24122.27379647  .00001378  00000-0  10462-3 0  9993,2 52608  53.2168  80.1582 0001185  97.6655 262.4472 15.08845945108594,6917.862,95.437,540.547,538.907,0.0
52608.0,STARLINK-3979,PAYLOAD,2024-05-01 14:31:11,15.08842709,0.0001113,53.2166,78.6703,97.9062,262.2056,3.5693e-05,2.8e-06,0.0,0 STARLINK-3979,1 52608U 22052L   24122.60499721  .00000280  00000-0  35693-4 0  9991,2 52608  53.2166  78.6703 0001113  97.9062 262.2056 15.08842709108642,6917.872,95.437,540.507,538.967,0.0
52608.0,STARLINK-3979,PAYLOAD,2024-05-02 03:14:17,15.0883604,0.0001315,53.2199,76.2935,94.4262,265.688,2.3892e-05,9.2e-07,0.0,0 STARLINK-3979,1 52608U 22052L   24123.13492662  .00000092  00000-0  23892-4 0  9996,2 52608  53.2199  76.2935 0001315  94.4262 265.6880 15.08836040109090,6917.892,95.438,540.667,538.848,0.0
52608.0,STARLINK-3979,PAYLOAD,2024-05-02 14:21:59,15.08839253,0.0001359,53.2205,74.2117,87.2787,272.8361,1.011e-05,-1.27e-06,0.0,0 STARLINK-3979,1 52608U 22052L   24123.59860489 -.00000127  00000-0  10110-4 0  9991,2 52608  53.2205  74.2117 0001359  87.2787 272.8361 15.08839253108797,6917.883,95.438,540.688,538.808,0.0
52608.0,STARLINK-3979,PAYLOAD,2024-05-03 03:05:03,15.08850137,0.0001052,53.2195,71.8309,97.4182,262.693,0.00021248,3.096e-05,0.0,0 STARLINK-3979,1 52608U 22052L   24124.12851227  .00003096  00000-0  21248-3 0  9991,2 52608  53.2195  71.8309 0001052  97.4182 262.6930 15.08850137109247,6917.849,95.437,540.442,538.987,0.0
52608.0,STARLINK-3979,PAYLOAD,2024-05-03 20:34:19,15.0883665,0.000125,53.2168,68.5633,73.1324,286.9805,0.00015163,2.126e-05,0.0,0 STARLINK-3979,1 52608U 22052L   24124.85716525  .00002126  00000-0  15163-3 0  9994,2 52608  53.2168  68.5633 0001250  73.1324 286.9805 15.08836650109355,6917.891,95.438,540.62,538.891,0.0
52608.0,STARLINK-3979,PAYLOAD,2024-05-04 06:06:38,15.08831866,0.0001126,53.2175,66.7783,93.2854,266.8267,2.3138e-06,-2.51e-06,0.0,0 STARLINK-3979,1 52608U 22052L   24125.25460835 -.00000251  00000-0  23138-5 0  9990,2 52608  53.2175  66.7783 0001126  93.2854 266.8267 15.08831866109412,6917.905,95.438,540.549,538.991,0.0
